STARLINK-2302
1 28024C 21024AZ  21324.97623207  .00780307  00000-0  51540-2 0  3249
2 28024  53.0529  83.5174 0007843 272.9636 355.5233 15.74083526    17
